CCSDS_OMM_VERS = 2.0
CREATION_DATE  = 
ORIGINATOR     = 

OBJECT_NAME    = COSMOS 2550
OBJECT_ID      = 2021-056A
CENTER_NAME    = EARTH
REF_FRAME      = TEME
TIME_SYSTEM    = UTC
MEAN_ELEMENT_THEORY = SGP/SGP4

EPOCH          = 2025-11-07T17:01:48.279648
MEAN_MOTION    = 15.33832179
ECCENTRICITY   = .0008374
INCLINATION    = 67.1420
RA_OF_ASC_NODE = 49.9474
ARG_OF_PERICENTER = 269.6129
MEAN_ANOMALY   = 90.4066

EPHEMERIS_TYPE = 0
CLASSIFICATION_TYPE = U
NORAD_CAT_ID   = 48865
ELEMENT_SET_NO = 999
REV_AT_EPOCH   = 24475
BSTAR          = .13417E-5
MEAN_MOTION_DOT = -.148E-5
MEAN_MOTION_DDOT = 0

CCSDS_OMM_VERS = 2.0
CREATION_DATE  = 
ORIGINATOR     = 

OBJECT_NAME    = CZ-2C R/B
OBJECT_ID      = 2022-058K
CENTER_NAME    = EARTH
REF_FRAME      = TEME
TIME_SYSTEM    = UTC
MEAN_ELEMENT_THEORY = SGP/SGP4

EPOCH          = 2025-11-07T19:18:14.060160
MEAN_MOTION    = 15.46065677
ECCENTRICITY   = .0049457
INCLINATION    = 50.1919
RA_OF_ASC_NODE = 221.3899
ARG_OF_PERICENTER = 53.0947
MEAN_ANOMALY   = 307.4537

EPHEMERIS_TYPE = 0
CLASSIFICATION_TYPE = U
NORAD_CAT_ID   = 52794
ELEMENT_SET_NO = 999
REV_AT_EPOCH   = 19122
BSTAR          = .70845E-3
MEAN_MOTION_DOT = .367E-3
MEAN_MOTION_DDOT = 0

CCSDS_OMM_VERS = 2.0
CREATION_DATE  = 
ORIGINATOR     = 

OBJECT_NAME    = GSLV R/B
OBJECT_ID      = 2022-138AN
CENTER_NAME    = EARTH
REF_FRAME      = TEME
TIME_SYSTEM    = UTC
MEAN_ELEMENT_THEORY = SGP/SGP4

EPOCH          = 2025-11-07T16:06:51.101856
MEAN_MOTION    = 14.95841706
ECCENTRICITY   = .0019441
INCLINATION    = 87.3857
RA_OF_ASC_NODE = 207.2095
ARG_OF_PERICENTER = 231.2282
MEAN_ANOMALY   = 128.7213

EPHEMERIS_TYPE = 0
CLASSIFICATION_TYPE = U
NORAD_CAT_ID   = 54149
ELEMENT_SET_NO = 999
REV_AT_EPOCH   = 16568
BSTAR          = .45778E-3
MEAN_MOTION_DOT = .5157E-4
MEAN_MOTION_DDOT = 0

CCSDS_OMM_VERS = 2.0
CREATION_DATE  = 
ORIGINATOR     = 

OBJECT_NAME    = XRISM
OBJECT_ID      = 2023-137A
CENTER_NAME    = EARTH
REF_FRAME      = TEME
TIME_SYSTEM    = UTC
MEAN_ELEMENT_THEORY = SGP/SGP4

EPOCH          = 2025-11-07T19:14:35.142432
MEAN_MOTION    = 15.09790627
ECCENTRICITY   = .000821
INCLINATION    = 31.0033
RA_OF_ASC_NODE = 351.0313
ARG_OF_PERICENTER = 251.6927
MEAN_ANOMALY   = 108.2817

EPHEMERIS_TYPE = 0
CLASSIFICATION_TYPE = U
NORAD_CAT_ID   = 57800
ELEMENT_SET_NO = 999
REV_AT_EPOCH   = 11934
BSTAR          = .53305E-3
MEAN_MOTION_DOT = .8929E-4
MEAN_MOTION_DDOT = 0

CCSDS_OMM_VERS = 2.0
CREATION_DATE  = 
ORIGINATOR     = 

OBJECT_NAME    = ACS3
OBJECT_ID      = 2024-077B
CENTER_NAME    = EARTH
REF_FRAME      = TEME
TIME_SYSTEM    = UTC
MEAN_ELEMENT_THEORY = SGP/SGP4

EPOCH          = 2025-11-07T20:15:23.183712
MEAN_MOTION    = 13.83291684
ECCENTRICITY   = .0046581
INCLINATION    = 97.3229
RA_OF_ASC_NODE = 275.1859
ARG_OF_PERICENTER = 29.3757
MEAN_ANOMALY   = 331.0007

EPHEMERIS_TYPE = 0
CLASSIFICATION_TYPE = U
NORAD_CAT_ID   = 59588
ELEMENT_SET_NO = 999
REV_AT_EPOCH   = 7731
BSTAR          = .20373E-1
MEAN_MOTION_DOT = .2259E-3
MEAN_MOTION_DDOT = 0

