COSMOS 2550             
1 48865U 21056A   25311.70958657 -.00000148  00000+0  13417-5 0  9998
2 48865  67.1420  49.9474 0008374 269.6129  90.4066 15.33832179244756
CZ-2C R/B               
1 52794U 22058K   25311.80432940  .00036700  00000+0  70845-3 0  9998
2 52794  50.1919 221.3899 0049457  53.0947 307.4537 15.46065677191226
GSLV R/B                
1 54149U 22138AN  25311.67142479  .00005157  00000+0  45778-3 0  9992
2 54149  87.3857 207.2095 0019441 231.2282 128.7213 14.95841706165682
XRISM                   
1 57800U 23137A   25311.80179563  .00008929  00000+0  53305-3 0  9993
2 57800  31.0033 351.0313 0008210 251.6927 108.2817 15.09790627119342
ACS3                    
1 59588U 24077B   25311.84401833  .00022590  00000+0  20373-1 0  9991
2 59588  97.3229 275.1859 0046581  29.3757 331.0007 13.83291684 77310
